{"type": "FeatureCollection", "features": [ {"type": "Feature", "properties": {"norad_id": 41774, "name": "SKYSAT-C3", "group": "resource", "lat": -60.46102107315156, "lon": -175.72314467494897, "alt_km": 441.7834670657776, "timestamp": "2025-12-08T17:43:04.551439+00:00", "meta": {"OBJECT_NAME": "SKYSAT-C3", "OBJECT_ID": "2016-058E", "EPOCH": "2025-12-08T01:07:27.110784", "MEAN_MOTION": 15.44154244, "ECCENTRICITY": 0.00015522, "INCLINATION": 96.9299, "RA_OF_ASC_NODE": 16.0121, "ARG_OF_PERICENTER": 104.2631, "MEAN_ANOMALY": 255.8791, "EPHEMERIS_TYPE": 0, "CLASSIFICATION_TYPE": "U", "NORAD_CAT_ID": 41774, "ELEMENT_SET_NO": 999, "REV_AT_EPOCH": 51653, "BSTAR": 0.0004888496, "MEAN_MOTION_DOT": 0.00022349, "MEAN_MOTION_DDOT": 0}, "tle": {"line1": "1 41774U 16058E   25342.04684156  .00022349  00000+0  48885-3 0  9998", "line2": "2 41774  96.9299  16.0121 0001552 104.2631 255.8791 15.44154244516531"}}, "geometry": {"type": "Point", "coordinates": [-175.72314467494897, -60.46102107315156]}}, {"type": "Feature", "properties": {"norad_id": 41785, "name": "ALSAT 1B", "group": "resource", "lat": 57.05944493593734, "lon": -17.483101631025246, "alt_km": 644.9344941456375, "timestamp": "2025-12-08T17:43:04.551451+00:00", "meta": {"OBJECT_NAME": "ALSAT 1B", "OBJECT_ID": "2016-059C", "EPOCH": "2025-12-08T07:40:04.165824", "MEAN_MOTION": 14.72068879, "ECCENTRICITY": 0.00106006, "INCLINATION": 97.7815, "RA_OF_ASC_NODE": 354.3, "ARG_OF_PERICENTER": 116.2814, "MEAN_ANOMALY": 243.9485, "EPHEMERIS_TYPE": 0, "CLASSIFICATION_TYPE": "U", "NORAD_CAT_ID": 41785, "ELEMENT_SET_NO": 999, "REV_AT_EPOCH": 49249, "BSTAR": 0.0001502893, "MEAN_MOTION_DOT": 8.98e-06, "MEAN_MOTION_DDOT": 0}, "tle": {"line1": "1 41785U 16059C   25342.31949266  .00000898  00000+0  15029-3 0  9996", "line2": "2 41785  97.7815 354.3000 0010600 116.2814 243.9485 14.72068879492494"}}, "geometry": {"type": "Point", "coordinates": [-17.483101631025246, 57.05944493593734]}}, {"type": "Feature", "properties": {"norad_id": 41787, "name": "PATHFINDER 1", "group": "resource", "lat": -25.230412896239127, "lon": 161.98752164296593, "alt_km": 683.2100615295394, "timestamp": "2025-12-08T17:43:04.551462+00:00", "meta": {"OBJECT_NAME": "PATHFINDER 1", "OBJECT_ID": "2016-059E", "EPOCH": "2025-12-08T06:58:04.930176", "MEAN_MOTION": 14.6730964, "ECCENTRICITY": 0.00300536, "INCLINATION": 97.8138, "RA_OF_ASC_NODE": 345.2704, "ARG_OF_PERICENTER": 94.6991, "MEAN_ANOMALY": 265.7648, "EPHEMERIS_TYPE": 0, "CLASSIFICATION_TYPE": "U", "NORAD_CAT_ID": 41787, "ELEMENT_SET_NO": 999, "REV_AT_EPOCH": 49171, "BSTAR": 0.00027526391, "MEAN_MOTION_DOT": 1.517e-05, "MEAN_MOTION_DDOT": 0}, "tle": {"line1": "1 41787U 16059E   25342.29033484  .00001517  00000+0  27526-3 0  9995", "line2": "2 41787  97.8138 345.2704 0030053  94.6991 265.7648 14.67309640491719"}}, "geometry": {"type": "Point", "coordinates": [161.98752164296593, -25.230412896239127]}}, {"type": "Feature", "properties": {"norad_id": 41790, "name": "SCATSAT 1", "group": "resource", "lat": 29.472888467677393, "lon": 34.71509161468714, "alt_km": 645.0349735429118, "timestamp": "2025-12-08T17:43:04.551485+00:00", "meta": {"OBJECT_NAME": "SCATSAT 1", "OBJECT_ID": "2016-059H", "EPOCH": "2025-12-08T02:58:06.608640", "MEAN_MOTION": 14.78911997, "ECCENTRICITY": 0.00560605, "INCLINATION": 98.1466, "RA_OF_ASC_NODE": 38.7364, "ARG_OF_PERICENTER": 142.5942, "MEAN_ANOMALY": 217.9191, "EPHEMERIS_TYPE": 0, "CLASSIFICATION_TYPE": "U", "NORAD_CAT_ID": 41790, "ELEMENT_SET_NO": 999, "REV_AT_EPOCH": 7334, "BSTAR": 0.00033760448, "MEAN_MOTION_DOT": 2.499e-05, "MEAN_MOTION_DDOT": 0}, "tle": {"line1": "1 41790U 16059H   25342.12368760  .00002499  00000+0  33760-3 0  9996", "line2": "2 41790  98.1466  38.7364 0056060 142.5942 217.9191 14.78911997 73345"}}, "geometry": {"type": "Point", "coordinates": [34.71509161468714, 29.472888467677393]}}, {"type": "Feature", "properties": {"norad_id": 41875, "name": "GOKTURK 1A", "group": "resource", "lat": -12.578835599264513, "lon": -123.01210261120595, "alt_km": 688.7727715748733, "timestamp": "2025-12-08T17:43:04.551498+00:00", "meta": {"OBJECT_NAME": "GOKTURK 1A", "OBJECT_ID": "2016-073A", "EPOCH": "2025-12-08T06:17:02.424768", "MEAN_MOTION": 14.62772214, "ECCENTRICITY": 0.00012332, "INCLINATION": 98.1437, "RA_OF_ASC_NODE": 234.6869, "ARG_OF_PERICENTER": 83.3122, "MEAN_ANOMALY": 276.822, "EPHEMERIS_TYPE": 0, "CLASSIFICATION_TYPE": "U", "NORAD_CAT_ID": 41875, "ELEMENT_SET_NO": 999, "REV_AT_EPOCH": 48091, "BSTAR": 0.00022207888, "MEAN_MOTION_DOT": 1.086e-05, "MEAN_MOTION_DDOT": 0}, "tle": {"line1": "1 41875U 16073A   25342.26183362  .00001086  00000+0  22208-3 0  9990", "line2": "2 41875  98.1437 234.6869 0001233  83.3122 276.8220 14.62772214480910"}}, "geometry": {"type": "Point", "coordinates": [-123.01210261120595, -12.578835599264513]}}, {"type": "Feature", "properties": {"norad_id": 41877, "name": "RESOURCESAT-2A", "group": "resource", "lat": -81.08922141836992, "lon": 152.4550450200082, "alt_km": 826.4705611590007, "timestamp": "2025-12-08T17:43:04.551510+00:00", "meta": {"OBJECT_NAME": "RESOURCESAT-2A", "OBJECT_ID": "2016-074A", "EPOCH": "2025-12-08T06:19:24.574368", "MEAN_MOTION": 14.21596882, "ECCENTRICITY": 0.00011352, "INCLINATION": 98.7763, "RA_OF_ASC_NODE": 52.1455, "ARG_OF_PERICENTER": 275.4853, "MEAN_ANOMALY": 84.6195, "EPHEMERIS_TYPE": 0, "CLASSIFICATION_TYPE": "U", "NORAD_CAT_ID": 41877, "ELEMENT_SET_NO": 999, "REV_AT_EPOCH": 46717, "BSTAR": 0.00018442572, "MEAN_MOTION_DOT": 3.6e-06, "MEAN_MOTION_DDOT": 0}, "tle": {"line1": "1 41877U 16074A   25342.26347887  .00000360  00000+0  18443-3 0  9997", "line2": "2 41877  98.7763  52.1455 0001135 275.4853  84.6195 14.21596882467179"}}, "geometry": {"type": "Point", "coordinates": [152.4550450200082, -81.08922141836992]}}, {"type": "Feature", "properties": {"norad_id": 41948, "name": "CARTOSAT-2D", "group": "resource", "lat": -48.62417067678599, "lon": 48.82671985116564, "alt_km": 517.3022356036654, "timestamp": "2025-12-08T17:43:04.551521+00:00", "meta": {"OBJECT_NAME": "CARTOSAT-2D", "OBJECT_ID": "2017-008A", "EPOCH": "2025-12-08T06:52:07.131360", "MEAN_MOTION": 15.19190146, "ECCENTRICITY": 0.00042838, "INCLINATION": 97.4391, "RA_OF_ASC_NODE": 39.8512, "ARG_OF_PERICENTER": 176.3307, "MEAN_ANOMALY": 183.796, "EPHEMERIS_TYPE": 0, "CLASSIFICATION_TYPE": "U", "NORAD_CAT_ID": 41948, "ELEMENT_SET_NO": 999, "REV_AT_EPOCH": 48859, "BSTAR": 0.0003164984, "MEAN_MOTION_DOT": 6.594e-05, "MEAN_MOTION_DDOT": 0}, "tle": {"line1": "1 41948U 17008A   25342.28619365  .00006594  00000+0  31650-3 0  9999", "line2": "2 41948  97.4391  39.8512 0004283 176.3307 183.7960 15.19190146488598"}}, "geometry": {"type": "Point", "coordinates": [48.82671985116564, -48.62417067678599]}}, {"type": "Feature", "properties": {"norad_id": 42063, "name": "SENTINEL-2B", "group": "resource", "lat": 73.14747666246141, "lon": -94.89510087899524, "alt_km": 781.1738075287549, "timestamp": "2025-12-08T17:43:04.551532+00:00", "meta": {"OBJECT_NAME": "SENTINEL-2B", "OBJECT_ID": "2017-013A", "EPOCH": "2025-12-08T05:28:58.536192", "MEAN_MOTION": 14.30813596, "ECCENTRICITY": 0.00011297, "INCLINATION": 98.5723, "RA_OF_ASC_NODE": 54.7378, "ARG_OF_PERICENTER": 97.8858, "MEAN_ANOMALY": 262.2453, "EPHEMERIS_TYPE": 0, "CLASSIFICATION_TYPE": "U", "NORAD_CAT_ID": 42063, "ELEMENT_SET_NO": 999, "REV_AT_EPOCH": 45733, "BSTAR": 0.0001486747, "MEAN_MOTION_DOT": 3.46e-06, "MEAN_MOTION_DDOT": 0}, "tle": {"line1": "1 42063U 17013A   25342.22845528  .00000346  00000+0  14867-3 0  9990", "line2": "2 42063  98.5723  54.7378 0001129  97.8858 262.2453 14.30813596457339"}}, "geometry": {"type": "Point", "coordinates": [-94.89510087899524, 73.14747666246141]}}, {"type": "Feature", "properties": {"norad_id": 42767, "name": "CARTOSAT-2E", "group": "resource", "lat": -41.02481132841837, "lon": -146.16548603649764, "alt_km": 513.3971986719371, "timestamp": "2025-12-08T17:43:04.551543+00:00", "meta": {"OBJECT_NAME": "CARTOSAT-2E", "OBJECT_ID": "2017-036C", "EPOCH": "2025-12-08T05:40:52.528512", "MEAN_MOTION": 15.19253668, "ECCENTRICITY": 0.0002333, "INCLINATION": 97.4558, "RA_OF_ASC_NODE": 39.882, "ARG_OF_PERICENTER": 259.1354, "MEAN_ANOMALY": 100.9618, "EPHEMERIS_TYPE": 0, "CLASSIFICATION_TYPE": "U", "NORAD_CAT_ID": 42767, "ELEMENT_SET_NO": 999, "REV_AT_EPOCH": 46915, "BSTAR": 0.00034679344, "MEAN_MOTION_DOT": 7.244e-05, "MEAN_MOTION_DDOT": 0}, "tle": {"line1": "1 42767U 17036C   25342.23671908  .00007244  00000+0  34679-3 0  9993", "line2": "2 42767  97.4558  39.8820 0002333 259.1354 100.9618 15.19253668469152"}}, "geometry": {"type": "Point", "coordinates": [-146.16548603649764, -41.02481132841837]}}, {"type": "Feature", "properties": {"norad_id": 42920, "name": "FORMOSAT-5", "group": "resource", "lat": 3.6330455925936307, "lon": -122.33594410720117, "alt_km": 729.7350850724679, "timestamp": "2025-12-08T17:43:04.551554+00:00", "meta": {"OBJECT_NAME": "FORMOSAT-5", "OBJECT_ID": "2017-049A", "EPOCH": "2025-12-08T06:58:39.347616", "MEAN_MOTION": 14.51001615, "ECCENTRICITY": 0.00100693, "INCLINATION": 98.2457, "RA_OF_ASC_NODE": 56.6979, "ARG_OF_PERICENTER": 310.5807, "MEAN_ANOMALY": 49.4511, "EPHEMERIS_TYPE": 0, "CLASSIFICATION_TYPE": "U", "NORAD_CAT_ID": 42920, "ELEMENT_SET_NO": 999, "REV_AT_EPOCH": 43899, "BSTAR": 0.00014592264, "MEAN_MOTION_DOT": 5.33e-06, "MEAN_MOTION_DDOT": 0}, "tle": {"line1": "1 42920U 17049A   25342.29073319  .00000533  00000+0  14592-3 0  9992", "line2": "2 42920  98.2457  56.6979 0010069 310.5807  49.4511 14.51001615438997"}}, "geometry": {"type": "Point", "coordinates": [-122.33594410720117, 3.6330455925936307]}}]}